NORAD_CAT_ID,OBJECT_NAME,OBJECT_TYPE,EPOCH,MEAN_MOTION,ECCENTRICITY,INCLINATION,RA_OF_ASC_NODE,ARG_OF_PERICENTER,MEAN_ANOMALY,BSTAR,MEAN_MOTION_DOT,MEAN_MOTION_DDOT,TLE_LINE0,TLE_LINE1,TLE_LINE2,SEMIMAJOR_AXIS,PERIOD,APOGEE,PERIGEE,DECAYED
54792.0,STARLINK-5431,PAYLOAD,2024-05-14 18:17:48,15.08833965,0.0001393,53.216,144.2439,86.265,273.8501,0.00086901,0.00013567,0.0,0 STARLINK-5431,1 54792U 22175AL  24135.76236112  .00013567  00000-0  86901-3 0  9996,2 54792  53.2160 144.2439 0001393  86.2650 273.8501 15.08833965 77532,6917.899,95.438,540.727,538.8,0.0
54792.0,STARLINK-5431,PAYLOAD,2024-05-15 05:25:29,15.08855783,0.0001467,53.2147,142.1622,80.9042,279.2116,0.00012974,1.778e-05,0.0,0 STARLINK-5431,1 54792U 22175AL  24136.22603360  .00001778  00000-0  12974-3 0  9991,2 54792  53.2147 142.1622 0001467  80.9042 279.2116 15.08855783 77608,6917.832,95.437,540.712,538.682,0.0
54792.0,STARLINK-5431,PAYLOAD,2024-05-15 10:11:38,15.08858177,0.000151,53.2156,141.2707,78.1832,281.9329,0.00013,1.783e-05,0.0,0 STARLINK-5431,1 54792U 22175AL  24136.42475102  .00001783  00000-0  13000-3 0  9991,2 54792  53.2156 141.2707 0001510  78.1832 281.9329 15.08858177 79795,6917.825,95.436,540.734,538.645,0.0
54792.0,STARLINK-5431,PAYLOAD,2024-05-16 05:16:15,15.08846518,0.0001569,53.2151,137.7012,79.701,280.4159,-0.00010667,-1.986e-05,0.0,0 STARLINK-5431,1 54792U 22175AL  24137.21962962 -.00001986  00000-0 -10667-3 0  9997,2 54792  53.2151 137.7012 0001569  79.7010 280.4159 15.08846518 77753,6917.86,95.437,540.811,538.64,0.0
54792.0,STARLINK-5431,PAYLOAD,2024-05-16 06:51:39,15.08848388,0.0001558,53.2155,137.4034,82.7319,277.385,-3.2164e-05,-8e-06,0.0,0 STARLINK-5431,1 54792U 22175AL  24137.28587284 -.00000800  00000-0 -32164-4 0  9995,2 54792  53.2155 137.4034 0001558  82.7319 277.3850 15.08848388 79923,6917.855,95.437,540.798,538.642,0.0
54792.0,STARLINK-5431,PAYLOAD,2024-05-16 16:23:57,15.08852617,0.0001507,53.2161,135.6193,81.5399,278.5764,1.8129e-05,1e-08,0.0,0 STARLINK-5431,1 54792U 22175AL  24137.68330568  .00000001  00000-0  18129-4 0  9996,2 54792  53.2161 135.6193 0001507  81.5399 278.5764 15.08852617 79988,6917.842,95.437,540.749,538.664,0.0
54792.0,STARLINK-5431,PAYLOAD,2024-05-17 05:07:02,15.08842799,0.0001466,53.2161,133.2412,79.6631,280.4526,3.5414e-05,2.76e-06,0.0,0 STARLINK-5431,1 54792U 22175AL  24138.21322826  .00000276  00000-0  35414-4 0  9994,2 54792  53.2161 133.2412 0001466  79.6631 280.4526 15.08842799 80066,6917.872,95.437,540.751,538.723,0.0
54792.0,STARLINK-5431,PAYLOAD,2024-05-18 04:57:50,15.08834107,0.0001428,53.2164,128.7825,82.2489,277.8665,6.6152e-05,7.65e-06,0.0,0 STARLINK-5431,1 54792U 22175AL  24139.20683266  .00000765  00000-0  66152-4 0  9998,2 54792  53.2164 128.7825 0001428  82.2489 277.8665 15.08834107 78059,6917.898,95.438,540.751,538.776,0.0
54792.0,STARLINK-5431,PAYLOAD,2024-05-18 06:33:13,15.08834439,0.0001391,53.2161,128.4841,73.0928,287.0216,5.4165e-05,5.74e-06,0.0,0 STARLINK-5431,1 54792U 22175AL  24139.27307275  .00000574  00000-0  54165-4 0  9997,2 54792  53.2161 128.4841 0001391  73.0928 287.0216 15.08834439 80221,6917.897,95.438,540.725,538.8,0.0
54792.0,STARLINK-5431,PAYLOAD,2024-05-18 16:05:31,15.0884232,0.0001374,53.2158,126.6975,75.8841,284.2304,6.071e-05,6.78e-06,0.0,0 STARLINK-5431,1 54792U 22175AL  24139.67050761  .00000678  00000-0  60710-4 0  9994,2 54792  53.2158 126.6975 0001374  75.8841 284.2304 15.08842320 78121,6917.873,95.437,540.689,538.788,0.0
54792.0,STARLINK-5431,PAYLOAD,2024-05-19 04:48:38,15.08829736,0.0001758,53.2174,124.3184,86.1908,273.9285,-1.7694e-05,-5.7e-06,0.0,0 STARLINK-5431,1 54792U 22175AL  24140.20044026 -.00000570  00000-0 -17694-4 0  9998,2 54792  53.2174 124.3184 0001758  86.1908 273.9285 15.08829736 78209,6917.912,95.438,540.993,538.561,0.0
54792.0,STARLINK-5431,PAYLOAD,2024-05-19 06:24:01,15.08834812,0.0001829,53.2177,124.0213,90.6,269.5201,-6.2412e-05,-1.281e-05,0.0,0 STARLINK-5431,1 54792U 22175AL  24140.26667849 -.00001281  00000-0 -62412-4 0  9996,2 54792  53.2177 124.0213 0001829  90.6000 269.5201 15.08834812 80375,6917.896,95.438,541.027,538.496,0.0
54792.0,STARLINK-5431,PAYLOAD,2024-05-20 04:39:24,15.08839812,0.0001433,53.2163,119.8606,86.175,273.9406,0.00013913,1.927e-05,0.0,0 STARLINK-5431,1 54792U 22175AL  24141.19403150  .00001927  00000-0  13913-3 0  9998,2 54792  53.2163 119.8606 0001433  86.1750 273.9406 15.08839812 78357,6917.881,95.438,540.737,538.755,0.0
54792.0,STARLINK-5431,PAYLOAD,2024-05-20 07:50:10,15.08843641,0.0001422,53.2162,119.2656,85.4513,274.6642,0.00017556,2.507e-05,0.0,0 STARLINK-5431,1 54792U 22175AL  24141.32650914  .00002507  00000-0  17556-3 0  9997,2 54792  53.2162 119.2656 0001422  85.4513 274.6642 15.08843641 80530,6917.869,95.437,540.718,538.751,0.0
54792.0,STARLINK-5431,PAYLOAD,2024-05-21 04:30:11,15.08838108,0.0001444,53.2166,115.3989,94.1745,265.9412,9.271e-05,1.188e-05,0.0,0 STARLINK-5431,1 54792U 22175AL  24142.18763576  .00001188  00000-0  92710-4 0  9991,2 54792  53.2166 115.3989 0001444  94.1745 265.9412 15.08838108 78502,6917.886,95.438,540.75,538.752,0.0
54792.0,STARLINK-5431,PAYLOAD,2024-05-21 07:40:57,15.08839614,0.0001438,53.2166,114.8038,96.7508,263.3647,9.9331e-05,1.293e-05,0.0,0 STARLINK-5431,1 54792U 22175AL  24142.32011450  .00001293  00000-0  99331-4 0  9997,2 54792  53.2166 114.8038 0001438  96.7508 263.3647 15.08839614 80686,6917.882,95.438,540.741,538.752,0.0
54792.0,STARLINK-5431,PAYLOAD,2024-05-22 07:31:44,15.08846457,0.0001416,53.2168,110.3432,100.1337,259.9814,5.1282e-05,5.28e-06,0.0,0 STARLINK-5431,1 54792U 22175AL  24143.31370863  .00000528  00000-0  51282-4 0  9996,2 54792  53.2168 110.3432 0001416 100.1337 259.9814 15.08846457 78679,6917.861,95.437,540.705,538.746,0.0
54792.0,STARLINK-5431,PAYLOAD,2024-05-23 02:36:22,15.08838244,0.0001473,53.2169,106.7735,125.3131,234.7999,4.3703e-05,4.08e-06,0.0,0 STARLINK-5431,1 54792U 22175AL  24144.10859143  .00000408  00000-0  43703-4 0  9993,2 54792  53.2169 106.7735 0001473 125.3131 234.7999 15.08838244 78792,6917.886,95.438,540.77,538.732,0.0
54792.0,STARLINK-5431,PAYLOAD,2024-05-23 07:22:31,15.08836909,0.0001531,53.217,105.8829,128.0047,232.1083,2.4569e-05,1.03e-06,0.0,0 STARLINK-5431,1 54792U 22175AL  24144.30731292  .00000103  00000-0  24569-4 0  9990,2 54792  53.2170 105.8829 0001531 128.0047 232.1083 15.08836909 80985,6917.89,95.438,540.814,538.696,0.0
54792.0,STARLINK-5431,PAYLOAD,2024-05-24 04:02:32,15.0884076,0.000144,53.2175,102.0173,120.8595,239.2539,3.3706e-05,2.49e-06,0.0,0 STARLINK-5431,1 54792U 22175AL  24145.16843090  .00000249  00000-0  33706-4 0  9999,2 54792  53.2175 102.0173 0001440 120.8595 239.2539 15.08840760 78956,6917.878,95.438,540.739,538.747,0.0
54792.0,STARLINK-5431,PAYLOAD,2024-05-24 07:13:18,15.08841806,0.0001369,53.2173,101.4217,119.1619,240.951,4.1278e-05,3.69e-06,0.0,0 STARLINK-5431,1 54792U 22175AL  24145.30090983  .00000369  00000-0  41278-4 0  9996,2 54792  53.2173 101.4217 0001369 119.1619 240.9510 15.08841806 81138,6917.875,95.437,540.687,538.793,0.0
54792.0,STARLINK-5431,PAYLOAD,2024-05-24 21:31:47,15.08833638,0.0001212,53.217,98.7451,105.6815,254.4311,6.3147e-05,7.17e-06,0.0,0 STARLINK-5431,1 54792U 22175AL  24145.89707525  .00000717  00000-0  63147-4 0  9993,2 54792  53.2170  98.7451 0001212 105.6815 254.4311 15.08833638 81221,6917.9,95.438,540.603,538.926,0.0
54792.0,STARLINK-5431,PAYLOAD,2024-05-25 03:53:20,15.0882584,0.0001208,53.2172,97.5563,113.021,247.091,-9.6863e-06,-4.42e-06,0.0,0 STARLINK-5431,1 54792U 22175AL  24146.16204367 -.00000442  00000-0 -96863-5 0  9999,2 54792  53.2172  97.5563 0001208 113.0210 247.0910 15.08825840 79104,6917.924,95.438,540.624,538.953,0.0
54792.0,STARLINK-5431,PAYLOAD,2024-05-25 13:25:39,15.08832289,0.0001371,53.2177,95.7827,135.7847,224.3255,3.3092e-05,2.39e-06,0.0,0 STARLINK-5431,1 54792U 22175AL  24146.55948190  .00000239  00000-0  33092-4 0  9997,2 54792  53.2177  95.7827 0001371 135.7847 224.3255 15.08832289 81322,6917.904,95.438,540.717,538.821,0.0
54792.0,STARLINK-5431,PAYLOAD,2024-05-25 19:47:11,15.0883266,0.000109,53.2177,94.5891,100.3416,259.7699,4.2558e-05,3.89e-06,0.0,0 STARLINK-5431,1 54792U 22175AL  24146.82444195  .00000389  00000-0  42558-4 0  9996,2 54792  53.2177  94.5891 0001090 100.3416 259.7699 15.08832660 79209,6917.903,95.438,540.522,539.014,0.0
54792.0,STARLINK-5431,PAYLOAD,2024-05-26 03:44:08,15.08818693,0.0001713,53.2178,93.108,131.9853,228.1285,-0.00010016,-1.881e-05,0.0,0 STARLINK-5431,1 54792U 22175AL  24147.15565707 -.00001881  00000-0 -10016-3 0  9999,2 54792  53.2178  93.1080 0001713 131.9853 228.1285 15.08818693 79258,6917.946,95.439,540.996,538.625,0.0
54792.0,STARLINK-5431,PAYLOAD,2024-05-27 03:34:54,15.08839344,0.000135,53.2174,88.6478,115.9878,244.1253,7.2694e-05,8.69e-06,0.0,0 STARLINK-5431,1 54792U 22175AL  24148.14924211  .00000869  00000-0  72694-4 0  9992,2 54792  53.2174  88.6478 0001350 115.9878 244.1253 15.08839344 79406,6917.882,95.438,540.681,538.813,0.0
54792.0,STARLINK-5431,PAYLOAD,2024-05-27 13:07:07,15.08910905,0.0006334,53.2177,86.8493,250.134,109.897,9.6801e-05,1.254e-05,0.0,0 STARLINK-5431,1 54792U 22175AL  24148.54661000  .00001254  00000-0  96801-4 0  9995,2 54792  53.2177  86.8493 0006334 250.1340 109.8970 15.08910905 79461,6917.664,95.433,543.91,535.147,0.0
54792.0,STARLINK-5431,PAYLOAD,2024-05-27 22:00:00,15.08849734,0.0001188,53.2157,85.1933,96.9476,113.9986,5.448e-06,-2.01e-06,0.0,0 STARLINK-5431,1 54792U 22175AL  24148.91667824 -.00000201  00000-0  54480-5 0  9996,2 54792  53.2157  85.1933 0001188  96.9476 113.9986 15.08849734 79529,6917.851,95.437,540.537,538.894,0.0
54792.0,STARLINK-5431,PAYLOAD,2024-05-28 12:58:00,15.0884275,0.0001068,53.2173,82.3912,103.2702,256.841,7.5758e-05,9.18e-06,0.0,0 STARLINK-5431,1 54792U 22175AL  24149.54028055  .00000918  00000-0  75758-4 0  9997,2 54792  53.2173  82.3912 0001068 103.2702 256.8410 15.08842750 81774,6917.872,95.437,540.476,538.998,0.0
